IRIDIUM 39              
1 25042U 97069D   25362.40907059  .00001024  00000+0  26132-3 0  9999
2 25042  86.3930 127.9121 0018310  24.1242 336.0815 14.49529884477092
IRIDIUM 38              
1 25043U 97069E   25362.35267782  .00000700  00000+0  22367-3 0  9992
2 25043  86.3980 151.5428 0002829 135.5278 224.6148 14.38330089473862
IRIDIUM 42              
1 25077U 97077A   25362.45886822  .00000619  00000+0  20412-3 0  9999
2 25077  86.3987 157.9054 0001975 114.9175 245.2228 14.36546656469083
IRIDIUM 44              
1 25078U 97077B   25362.30534472  .00000552  00000+0  16752-3 0  9993
2 25078  86.3978 139.3871 0003900 100.9218 259.2420 14.40445487471647
IRIDIUM 45              
1 25104U 97082A   25362.35433704  .00044419  00000+0  12314-2 0  9999
2 25104  86.3543 312.9784 0093912 321.4993  37.9580 15.32344756481669
IRIDIUM 24              
1 25105U 97082B   25362.44249304  .00000646  00000+0  18961-3 0  9990
2 25105  86.3907 357.8879 0012404 146.5992 213.5994 14.42343180471210
IRIDIUM 51              
1 25262U 98018A   25362.32509079  .00137155  00000+0  12878-2 0  9995
2 25262  86.3721 318.2230 0046242 206.0067 153.8878 15.65341650477086
IRIDIUM 57              
1 25273U 98019B   25362.44995169  .00000449  00000+0  14768-3 0  9996
2 25273  86.3945  63.7999 0002246  97.2201 262.9251 14.36063403452664
